ORBCOMM FM115 [+]       
1 41186U 15081H   23319.23260786  .00001107  00000+0  26349-3 0  9992
2 41186  46.9996 272.3080 0001411 287.7183  72.3549 14.60099629422958
ORBCOMM FM108 [+]       
1 41187U 15081J   23319.05677083  .00001171  00000+0  30092-3 0  9996
2 41187  47.0060 321.8849 0002158 196.6996 163.3818 14.56031380422196
ORBCOMM FM117 [+]       
1 41188U 15081K   23319.02256754  .00001164  00000+0  29927-3 0  9999
2 41188  47.0021 320.9999 0002966 205.6479 154.4259 14.56044314422230
ORBCOMM FM116 [+]       
1 41189U 15081L   23319.35531544  .00001098  00000+0  28442-3 0  9996
2 41189  47.0027  49.2395 0003015 269.3274  90.7266 14.56046596421091
